SARSAT 7 (NOAA 15)      
1 25338U 98030A   22256.18809215  .00000120  00000+0  68152-4 0  9990
2 25338  98.6394 284.5557 0011119  46.7878 313.4229 14.26169767265771
METEOSAT-8 (MSG-1)      
1 27509U 02040B   22255.54525897  .00000121  00000+0  00000+0 0  9992
2 27509   8.1964  50.1629 0001835 132.5602  46.6432  1.00278727 73483
GPS BIIR-08             
1 27663U 03005A   22255.75140360 -.00000006  00000+0  00000+0 0  9999
2 27663  55.4564 269.5924 0125992  41.1255 126.8969  2.00559460143761
GPS BIIR-11             
1 28190U 04009A   22255.86424490 -.00000089  00000+0  00000+0 0  9992
2 28190  55.9484 330.5940 0089695 125.3049 278.8418  2.00558532135403
GPS BIIR-13             
1 28474U 04045A   22255.71907205 -.00000103  00000+0  00000+0 0  9998
2 28474  55.3800  19.9499 0202190 279.8488 260.1314  2.00421875130885
SARSAT 10 (NOAA 18)     
1 28654U 05018A   22256.59315904  .00000168  00000+0  11417-3 0  9993
2 28654  98.9426 326.9336 0015261  83.7604 276.5306 14.12774963892518
GPS BIIR-14M            
1 28874U 05038A   22255.83548152 -.00000085  00000+0  00000+0 0  9999
2 28874  56.0109 328.0331 0139562 275.0217 134.8557  2.00570700124294
METEOSAT-9 (MSG-2)      
1 28912U 05049B   22255.69505016  .00000114  00000+0  00000+0 0  9992
2 28912   6.2119  65.7151 0001183 185.2386  36.7171  1.00278098 61269
GOES 13                 
1 29155U 06018A   22254.97528904  .00000018  00000+0  00000+0 0  9993
2 29155   0.8019  95.9468 0006415 109.4997 198.2314  1.00275007 59732
GPS BIIR-16M            
1 29601U 06052A   22255.33207495 -.00000005  00000+0  00000+0 0  9994
2 29601  55.4661 268.5507 0082605  75.0270 285.9103  2.00555792115855
GPS BIIR-17M            
1 32260U 07047A   22255.14129313  .00000008  00000+0  00000+0 0  9997
2 32260  53.3351 136.9510 0143273  64.4342 297.1257  2.00569943109251
GPS BIIR-18M            
1 32384U 07062A   22255.61320594 -.00000085  00000+0  00000+0 0  9993
2 32384  56.1327 328.8144 0020876 145.1350 323.8829  2.00566957107966
SARSAT 12 (NOAA 19)     
1 33591U 09005A   22256.17940913  .00000161  00000+0  11197-3 0  9995
2 33591  99.1418 292.1332 0013019 303.9609  56.0324 14.12608263700832
GOES 14                 
1 35491U 09033A   22255.65957868 -.00000108  00000+0  00000+0 0  9995
2 35491   0.4080 267.5708 0017525 304.3060 272.7326  1.00273436 48330
GOES 15                 
1 36411U 10008A   22255.72672296  .00000035  00000+0  00000+0 0  9997
2 36411   0.3682 277.0274 0004915 257.2636 311.3645  1.00279665 45890
GPS BIIF-2              
1 37753U 11036A   22255.83588056 -.00000097  00000+0  00000+0 0  9990
2 37753  56.6438  25.3062 0118392  53.4319   6.0596  2.00565871 81735
GSAT0101 (GALILEO-PFM)  
1 37846U 11060A   22255.65306517 -.00000102  00000+0  00000+0 0  9997
2 37846  57.0275  18.9698 0001721  73.9910 286.0226  1.70474975 67831
GSAT0102 (GALILEO-FM2)  
1 37847U 11060B   22255.57351189 -.00000102  00000+0  00000+0 0  9994
2 37847  57.0283  18.9717 0001136 339.9983  17.9632  1.70475328 67709
LUCH 5A                 
1 37951U 11074B   22255.89387728 -.00000061  00000+0  00000+0 0  9992
2 37951   5.2322  96.0306 0004478  46.0469 338.4931  1.00272038 39429
METEOSAT-10 (MSG-3)     
1 38552U 12035B   22255.82586979  .00000049  00000+0  00000+0 0  9995
2 38552   1.6555  45.8044 0000306 130.1330 122.6818  1.00279468 37085
SARSAT 13 (METOP-B)     
1 38771U 12049A   22256.62998465  .00000082  00000+0  57538-4 0  9999
2 38771  98.6877 315.0443 0001622 122.1748  32.9332 14.21506840518253
GPS BIIF-3              
1 38833U 12053A   22255.23911850  .00000003  00000+0  00000+0 0  9992
2 38833  53.5259 199.7978 0128147  47.2397 313.8042  2.00562844 71887
GSAT0103 (GALILEO-FM3)  
1 38857U 12055A   22253.93271466  .00000002  00000+0  00000+0 0  9996
2 38857  55.1590 139.3489 0002677 263.6870  96.3697  1.70473744 61564
GSAT0104 (GALILEO-FM4)  
1 38858U 12055B   22256.24903607 -.00000003  00000+0  00000+0 0  9995
2 38858  55.1595 139.2866 0000361 181.7966 178.2933  1.70474059 61712
GPS BIIF-4              
1 39166U 13023A   22255.09746495 -.00000077  00000+0  00000+0 0  9997
2 39166  55.6355 324.4008 0104173  38.4726 322.3288  2.00565408 68320
INSAT-3D                
1 39216U 13038B   22255.73951116 -.00000172  00000+0  00000+0 0  9994
2 39216   0.0178 187.8328 0001772  19.7948 132.3707  1.00270992 33325
GPS BIIF-5              
1 39533U 14008A   22255.59807079  .00000007  00000+0  00000+0 0  9992
2 39533  53.6186 205.2984 0060678 209.8405 149.7845  2.00558346 62132
LUCH 5V                 
1 39727U 14023A   22255.54732772 -.00000283  00000+0  00000+0 0  9993
2 39727   1.7000  76.4093 0003685 114.2968  92.4934  1.00267006 30589
GPS BIIF-6              
1 39741U 14026A   22254.88423735 -.00000097  00000+0  00000+0 0  9997
2 39741  56.6040  24.8693 0026649 304.3077  55.4379  2.00549809 60972
GPS BIIF-7              
1 40105U 14045A   22254.96610518  .00000011  00000+0  00000+0 0  9995
2 40105  54.7080 143.3504 0022526 111.0550 249.2631  2.00553131 58512
GSAT0201 (GALILEO 5)    
1 40128U 14050A   22256.06620614 -.00000107  00000+0  00000+0 0  9994
2 40128  50.2231 328.7920 1621441 127.2401 248.6861  1.85519055 54785
GSAT0202 (GALILEO 6)    
1 40129U 14050B   22254.70991162 -.00000098  00000+0  00000+0 0  9992
2 40129  50.2476 327.9090 1618702 128.0012 247.7570  1.85519687 54989
GPS BIIF-8              
1 40294U 14068A   22255.83302647 -.00000021  00000+0  00000+0 0  9999
2 40294  55.8831  84.4843 0043012  58.7944 301.6824  2.00577584 57665
GLONASS-K 2             
1 40315U 14075A   22255.54662105  .00000024  00000+0  00000+0 0  9999
2 40315  63.6799 238.1199 0019481 212.4207 329.5050  2.13101406 60580
GPS BIIF-9              
1 40534U 15013A   22255.48130256 -.00000004  00000+0  00000+0 0  9994
2 40534  53.6531 261.0881 0070333  19.6548 340.6230  2.00576873 54270
GSAT0203 (GALILEO 7)    
1 40544U 15017A   22255.43316870 -.00000102  00000+0  00000+0 0  9991
2 40544  56.8231  18.9972 0003039 218.1802 141.7926  1.70476186 45781
GSAT0204 (GALILEO 8)    
1 40545U 15017B   22255.09949255 -.00000102  00000+0  00000+0 0  9993
2 40545  56.8281  19.0190 0003446 200.8033 159.1763  1.70475666  8825
GPS BIIF-10             
1 40730U 15033A   22255.13915048 -.00000077  00000+0  00000+0 0  9996
2 40730  55.1318 323.1865 0074521   7.6010 352.5760  2.00573705 52431
METEOSAT-11 (MSG-4)     
1 40732U 15034A   22255.82386420 -.00000022  00000+0  00000+0 0  9991
2 40732   0.4725  71.3955 0000925  47.8922 168.6699  1.00272451 26256
GSAT0205 (GALILEO 9)    
1 40889U 15045A   22252.52043004  .00000023  00000+0  00000+0 0  9998
2 40889  55.5729 259.6399 0004050 348.2746  11.7358  1.70473330 43549
GSAT0206 (GALILEO 10)   
1 40890U 15045B   22255.08751507  .00000011  00000+0  00000+0 0  9995
2 40890  55.5704 259.5646 0003001 320.3185  39.6617  1.70473393 43615
GPS BIIF-11             
1 41019U 15062A   22256.18474128 -.00000024  00000+0  00000+0 0  9996
2 41019  55.8710  84.3151 0080351 217.3179 142.1744  2.00562688 50298
ELEKTRO-L 2             
1 41105U 15074A   22256.17982089 -.00000129  00000+0  00000+0 0  9990
2 41105   3.2024  87.1085 0002617  99.0907 216.2022  1.00270644 24749
GSAT0209 (GALILEO 12)   
1 41174U 15079A   22255.26177778  .00000001  00000+0  00000+0 0  9999
2 41174  55.1759 139.0165 0002888 330.8641  29.2106  1.70473975 41353
GSAT0208 (GALILEO 11)   
1 41175U 15079B   22256.06784160 -.00000002  00000+0  00000+0 0  9990
2 41175  55.1736 138.9926 0002294 336.1936  23.8864  1.70474003 41948
GPS BIIF-12             
1 41328U 16007A   22254.77734060  .00000012  00000+0  00000+0 0  9992
2 41328  54.9231 144.0502 0062583 230.0798 129.4440  2.00566829 48276
GSAT0211 (GALILEO 14)   
1 41549U 16030A   22254.42696072  .00000013  00000+0  00000+0 0  9996
2 41549  55.7168 259.5248 0004631 305.3475  54.6148  1.70474878 39234
GSAT0210 (GALILEO 13)   
1 41550U 16030B   22255.89270764  .00000013  00000+0  00000+0 0  9996
2 41550  55.7154 259.4859 0004658 277.2478  82.6986  1.70474894 39236
INSAT-3DR               
1 41752U 16054A   22256.54719256 -.00000091  00000+0  00000+0 0  9990
2 41752   0.0390  91.8992 0011993 170.5389   1.0977  1.00272993 22031
GSAT0207 (GALILEO 15)   
1 41859U 16069A   22254.38232190  .00000002  00000+0  00000+0 0  9992
2 41859  54.8366 139.2008 0002049 337.2414  22.8382  1.70472584 35969
GSAT0212 (GALILEO 16)   
1 41860U 16069B   22253.06247910  .00000000  00000+0  00000+0 0  9992
2 41860  54.8336 139.2349 0002470 344.8525  15.2232  1.70472625 36193
GSAT0213 (GALILEO 17)   
1 41861U 16069C   22252.25459030 -.00000002  00000+0  00000+0 0  9994
2 41861  54.8360 139.2625 0003651 273.1991  86.8373  1.70472766 36041
GSAT0214 (GALILEO 18)   
1 41862U 16069D   22255.92132519 -.00000002  00000+0  00000+0 0  9992
2 41862  54.8350 139.1552 0001395 284.9452  75.1297  1.70472730 36232
GOES 16                 
1 41866U 16071A   22255.59365519 -.00000264  00000+0  00000+0 0  9990
2 41866   0.0652 285.7857 0000602 284.1047 280.2025  1.00272298 21346
GSAT-17                 
1 42815U 17040B   22255.89587464 -.00000274  00000+0  00000+0 0  9991
2 42815   0.0256  99.7792 0004075 146.4218 161.7020  1.00271834 19014
GSAT0215 (GALILEO 19)   
1 43055U 17079A   22252.89167012  .00000020  00000+0  00000+0 0  9998
2 43055  55.6934 259.3984 0004148 272.1062  87.8625  1.70474082 29525
GSAT0216 (GALILEO 20)   
1 43056U 17079B   22256.11672680  .00000014  00000+0  00000+0 0  9993
2 43056  55.6921 259.3093 0005804 276.0154  83.9170  1.70474233 29562
GSAT0217 (GALILEO 21)   
1 43057U 17079C   22252.81751079  .00000021  00000+0  00000+0 0  9995
2 43057  55.6918 259.3999 0005284 286.2029  73.7559  1.70474172 29526
GSAT0218 (GALILEO 22)   
1 43058U 17079D   22255.97044369  .00000013  00000+0  00000+0 0  9994
2 43058  55.6904 259.3104 0006266 272.9093  87.0177  1.70474188 29570
GOES 17                 
1 43226U 18022A   22254.72036212  .00000079  00000+0  00000+0 0  9992
2 43226   0.0878 282.6891 0000397 237.4439 312.5905  1.00271684 16640
